{
    "links": {
        "self": "http://www.neowsapp.com/rest/v1/neo/3609840?api_key=iIulBulltgU6a56xZRHN4H3l9WmuAYTsLGpBGhQ2"
    },
    "id": "3609840",
    "neo_reference_id": "3609840",
    "name": "(2012 TM20)",
    "designation": "2012 TM20",
    "nasa_jpl_url": "http://ssd.jpl.nasa.gov/sbdb.cgi?sstr=3609840",
    "absolute_magnitude_h": 22.6,
    "estimated_diameter": {
        "kilometers": {
            "estimated_diameter_min": 0.0802703167,
            "estimated_diameter_max": 0.1794898848
        },
        "meters": {
            "estimated_diameter_min": 80.2703167283,
            "estimated_diameter_max": 179.4898847799
        },
        "miles": {
            "estimated_diameter_min": 0.049877647,
            "estimated_diameter_max": 0.1115298092
        },
        "feet": {
            "estimated_diameter_min": 263.3540659348,
            "estimated_diameter_max": 588.8775935812
        }
    },
    "is_potentially_hazardous_asteroid": false,
    "close_approach_data": [
        {
            "close_approach_date": "2012-08-30",
            "close_approach_date_full": "2012-Aug-30 17:52",
            "epoch_date_close_approach": 1346349120000,
            "relative_velocity": {
                "kilometers_per_second": "7.0657424322",
                "kilometers_per_hour": "25436.6727560662",
                "miles_per_hour": "15805.359246679"
            },
            "miss_distance": {
                "astronomical": "0.1462299587",
                "lunar": "56.8834539343",
                "kilometers": "21875690.351707969",
                "miles": "13592923.6723052122"
            },
            "orbiting_body": "Earth"
        }
    ],
    "orbital_data": {
        "orbit_id": "9",
        "orbit_determination_date": "2017-04-06 08:48:46",
        "first_observation_date": "2012-10-07",
        "last_observation_date": "2012-10-17",
        "data_arc_in_days": 10,
        "observations_used": 28,
        "orbit_uncertainty": "8",
        "minimum_orbit_intersection": ".136443",
        "jupiter_tisserand_invariant": "3.525",
        "epoch_osculation": "2456209.5",
        "eccentricity": ".491977946395346",
        "semi_major_axis": "2.157910830984411",
        "inclination": "6.490167515454105",
        "ascending_node_longitude": "209.579733386186",
        "orbital_period": "1157.840319989926",
        "perihelion_distance": "1.096266291852426",
        "perihelion_argument": "111.6029131754387",
        "aphelion_distance": "3.219555370116396",
        "perihelion_time": "2456157.253923443841",
        "mean_anomaly": "16.24454360026164",
        "mean_motion": ".3109237031952147",
        "equinox": "J2000",
        "orbit_class": {
            "orbit_class_type": "AMO",
            "orbit_class_description": "Near-Earth asteroid orbits similar to that of 1221 Amor",
            "orbit_class_range": "1.017 AU < q (perihelion) < 1.3 AU"
        }
    },
    "is_sentry_object": false
}